COSMOS 2251 DEB         
1 35901U 93036AUQ 26091.42664339  .00131305  00000+0  48232-2 0  9997
2 35901  74.0040 153.9349 0010497 304.7221  65.2383 15.27253040877894
COSMOS 2251 DEB         
1 35902U 93036AUR 26086.20610585  .00002055  00000+0  80153-3 0  9990
2 35902  73.9826  44.8684 0101394 138.4840 222.4067 14.27507438626206
COSMOS 2251 DEB         
1 35905U 93036AUU 26092.95016206  .00014228  00000+0  10313-2 0  9997
2 35905  74.0328 344.6789 0084650  35.2223 325.4517 15.01069563902508
COSMOS 2251 DEB         
1 35959U 93036AUZ 26095.72815735  .00000312  00000+0  12021-3 0  9996
2 35959  74.0299 103.3796 0021970 162.7780 197.4123 14.34222207865624
COSMOS 2251 DEB         
1 35961U 93036AVB 26095.41047062  .00002891  00000+0  15108-2 0  9997
2 35961  73.9292   4.1327 0189085 273.1567  84.7951 14.06116193642791
COSMOS 2251 DEB         
1 35979U 93036AVV 26095.52810429  .00007053  00000+0  99728-3 0  9999
2 35979  74.0124  15.4999 0057871 122.4887  54.1042 14.76135601903114
COSMOS 2251 DEB         
1 35980U 93036AVW 26078.34990749  .00003585  00000+0  72789-3 0  9990
2 35980  73.9103 296.9057 0051546  50.4738 310.0966 14.60707865628966
COSMOS 2251 DEB         
1 35982U 93036AVY 26095.79886957  .00002734  00000+0  51717-3 0  9998
2 35982  74.0552 128.4468 0064176 168.4243 191.8420 14.63552448878344
COSMOS 2251 DEB         
1 35987U 93036AWD 26093.05432374  .00003924  00000+0  11401-2 0  9997
2 35987  73.9962 119.3033 0050447 221.0458 138.6899 14.43901959626713
COSMOS 2251 DEB         
1 35989U 93036AWF 26095.20820728  .00000669  00000+0  23263-3 0  9995
2 35989  74.0331  75.1444 0021358 135.8146 224.4718 14.37247181888095
COSMOS 2251 DEB         
1 35993U 93036AWK 26094.38122362  .00005571  00000+0  10077-2 0  9992
2 35993  74.0126 115.5674 0032116 272.5385  87.2107 14.66271923620931
COSMOS 2251 DEB         
1 35996U 93036AWN 26078.19721100  .00006188  00000+0  33796-3 0  9990
2 35996  74.0129 263.9279 0084918 326.9740  32.6164 15.11435738737823
COSMOS 2251 DEB         
1 35997U 93036AWP 26092.96150293  .00003718  00000+0  92484-3 0  9996
2 35997  74.0454 337.9740 0013641  27.1039 333.0832 14.52036424724982
COSMOS 2251 DEB         
1 36000U 93036AWS 26093.62520486  .00053486  00000+0  45804-2 0  9991
2 36000  73.9886 221.1492 0029812 308.4869  51.3642 14.96943900618408
COSMOS 2251 DEB         
1 36005U 93036AWX 26094.80188852  .00000784  00000+0  21598-3 0  9992
2 36005  74.0253 242.4307 0061153 350.2727   9.7242 14.47522364892204
COSMOS 2251 DEB         
1 36045U 93036AXG 26093.28178894  .00028052  00000+0  42546-2 0  9995
2 36045  73.7618 198.6776 0045692 197.4968 162.4632 14.73284811100291
