[{"OBJECT_NAME":"COSMOS 2251 DEB","OBJECT_ID":"1993-036AUQ","EPOCH":"2026-04-01T10:14:21.988896","MEAN_MOTION":15.2725304,"ECCENTRICITY":0.0010497,"INCLINATION":74.004,"RA_OF_ASC_NODE":153.9349,"ARG_OF_PERICENTER":304.7221,"MEAN_ANOMALY":65.2383,"EPHEMERIS_TYPE":0,"CLASSIFICATION_TYPE":"U","NORAD_CAT_ID":35901,"ELEMENT_SET_NO":999,"REV_AT_EPOCH":87789,"BSTAR":0.0048232348,"MEAN_MOTION_DOT":0.00131305,"MEAN_MOTION_DDOT":0},{"OBJECT_NAME":"COSMOS 2251 DEB","OBJECT_ID":"1993-036AUR","EPOCH":"2026-03-27T04:56:47.545440","MEAN_MOTION":14.27507438,"ECCENTRICITY":0.01013946,"INCLINATION":73.9826,"RA_OF_ASC_NODE":44.8684,"ARG_OF_PERICENTER":138.484,"MEAN_ANOMALY":222.4067,"EPHEMERIS_TYPE":0,"CLASSIFICATION_TYPE":"U","NORAD_CAT_ID":35902,"ELEMENT_SET_NO":999,"REV_AT_EPOCH":62620,"BSTAR":0.00080152734,"MEAN_MOTION_DOT":2.055e-5,"MEAN_MOTION_DDOT":0},{"OBJECT_NAME":"COSMOS 2251 DEB","OBJECT_ID":"1993-036AUU","EPOCH":"2026-04-02T22:48:14.001984","MEAN_MOTION":15.01069563,"ECCENTRICITY":0.00846505,"INCLINATION":74.0328,"RA_OF_ASC_NODE":344.6789,"ARG_OF_PERICENTER":35.2223,"MEAN_ANOMALY":325.4517,"EPHEMERIS_TYPE":0,"CLASSIFICATION_TYPE":"U","NORAD_CAT_ID":35905,"ELEMENT_SET_NO":999,"REV_AT_EPOCH":90250,"BSTAR":0.001031294,"MEAN_MOTION_DOT":0.00014228,"MEAN_MOTION_DDOT":0},{"OBJECT_NAME":"COSMOS 2251 DEB","OBJECT_ID":"1993-036AUZ","EPOCH":"2026-04-05T17:28:32.795040","MEAN_MOTION":14.34222207,"ECCENTRICITY":0.002197,"INCLINATION":74.0299,"RA_OF_ASC_NODE":103.3796,"ARG_OF_PERICENTER":162.778,"MEAN_ANOMALY":197.4123,"EPHEMERIS_TYPE":0,"CLASSIFICATION_TYPE":"U","NORAD_CAT_ID":35959,"ELEMENT_SET_NO":999,"REV_AT_EPOCH":86562,"BSTAR":0.00012021,"MEAN_MOTION_DOT":3.12e-6,"MEAN_MOTION_DDOT":0},{"OBJECT_NAME":"COSMOS 2251 DEB","OBJECT_ID":"1993-036AVB","EPOCH":"2026-04-05T09:51:04.661568","MEAN_MOTION":14.06116193,"ECCENTRICITY":0.01890858,"INCLINATION":73.9292,"RA_OF_ASC_NODE":4.1327,"ARG_OF_PERICENTER":273.1567,"MEAN_ANOMALY":84.7951,"EPHEMERIS_TYPE":0,"CLASSIFICATION_TYPE":"U","NORAD_CAT_ID":35961,"ELEMENT_SET_NO":999,"REV_AT_EPOCH":64279,"BSTAR":0.0015107928,"MEAN_MOTION_DOT":2.891e-5,"MEAN_MOTION_DDOT":0},{"OBJECT_NAME":"COSMOS 2251 DEB","OBJECT_ID":"1993-036AVV","EPOCH":"2026-04-05T12:40:28.210656","MEAN_MOTION":14.76135601,"ECCENTRICITY":0.00578716,"INCLINATION":74.0124,"RA_OF_ASC_NODE":15.4999,"ARG_OF_PERICENTER":122.4887,"MEAN_ANOMALY":54.1042,"EPHEMERIS_TYPE":0,"CLASSIFICATION_TYPE":"U","NORAD_CAT_ID":35979,"ELEMENT_SET_NO":999,"REV_AT_EPOCH":90311,"BSTAR":0.00099727961,"MEAN_MOTION_DOT":7.053e-5,"MEAN_MOTION_DDOT":0},{"OBJECT_NAME":"COSMOS 2251 DEB","OBJECT_ID":"1993-036AVW","EPOCH":"2026-03-19T08:23:52.007136","MEAN_MOTION":14.60707865,"ECCENTRICITY":0.00515461,"INCLINATION":73.9103,"RA_OF_ASC_NODE":296.9057,"ARG_OF_PERICENTER":50.4738,"MEAN_ANOMALY":310.0966,"EPHEMERIS_TYPE":0,"CLASSIFICATION_TYPE":"U","NORAD_CAT_ID":35980,"ELEMENT_SET_NO":999,"REV_AT_EPOCH":62896,"BSTAR":0.00072788889,"MEAN_MOTION_DOT":3.585e-5,"MEAN_MOTION_DDOT":0},{"OBJECT_NAME":"COSMOS 2251 DEB","OBJECT_ID":"1993-036AVY","EPOCH":"2026-04-05T19:10:22.330848","MEAN_MOTION":14.63552448,"ECCENTRICITY":0.0064176,"INCLINATION":74.0552,"RA_OF_ASC_NODE":128.4468,"ARG_OF_PERICENTER":168.4243,"MEAN_ANOMALY":191.842,"EPHEMERIS_TYPE":0,"CLASSIFICATION_TYPE":"U","NORAD_CAT_ID":35982,"ELEMENT_SET_NO":999,"REV_AT_EPOCH":87834,"BSTAR":0.00051717,"MEAN_MOTION_DOT":2.734e-5,"MEAN_MOTION_DDOT":0},{"OBJECT_NAME":"COSMOS 2251 DEB","OBJECT_ID":"1993-036AWD","EPOCH":"2026-04-03T01:18:13.571136","MEAN_MOTION":14.43901959,"ECCENTRICITY":0.00504474,"INCLINATION":73.9962,"RA_OF_ASC_NODE":119.3033,"ARG_OF_PERICENTER":221.0458,"MEAN_ANOMALY":138.6899,"EPHEMERIS_TYPE":0,"CLASSIFICATION_TYPE":"U","NORAD_CAT_ID":35987,"ELEMENT_SET_NO":999,"REV_AT_EPOCH":62671,"BSTAR":0.0011401059,"MEAN_MOTION_DOT":3.924e-5,"MEAN_MOTION_DDOT":0},{"OBJECT_NAME":"COSMOS 2251 DEB","OBJECT_ID":"1993-036AWF","EPOCH":"2026-04-05T04:59:49.108992","MEAN_MOTION":14.37247181,"ECCENTRICITY":0.00213586,"INCLINATION":74.0331,"RA_OF_ASC_NODE":75.1444,"ARG_OF_PERICENTER":135.8146,"MEAN_ANOMALY":224.4718,"EPHEMERIS_TYPE":0,"CLASSIFICATION_TYPE":"U","NORAD_CAT_ID":35989,"ELEMENT_SET_NO":999,"REV_AT_EPOCH":88809,"BSTAR":0.00023262893,"MEAN_MOTION_DOT":6.69e-6,"MEAN_MOTION_DDOT":0},{"OBJECT_NAME":"COSMOS 2251 DEB","OBJECT_ID":"1993-036AWK","EPOCH":"2026-04-04T09:08:57.720768","MEAN_MOTION":14.66271923,"ECCENTRICITY":0.00321161,"INCLINATION":74.0126,"RA_OF_ASC_NODE":115.5674,"ARG_OF_PERICENTER":272.5385,"MEAN_ANOMALY":87.2107,"EPHEMERIS_TYPE":0,"CLASSIFICATION_TYPE":"U","NORAD_CAT_ID":35993,"ELEMENT_SET_NO":999,"REV_AT_EPOCH":62093,"BSTAR":0.0010076915,"MEAN_MOTION_DOT":5.571e-5,"MEAN_MOTION_DDOT":0},{"OBJECT_NAME":"COSMOS 2251 DEB","OBJECT_ID":"1993-036AWN","EPOCH":"2026-03-19T04:43:59.030400","MEAN_MOTION":15.11435738,"ECCENTRICITY":0.00849189,"INCLINATION":74.0129,"RA_OF_ASC_NODE":263.9279,"ARG_OF_PERICENTER":326.974,"MEAN_ANOMALY":32.6164,"EPHEMERIS_TYPE":0,"CLASSIFICATION_TYPE":"U","NORAD_CAT_ID":35996,"ELEMENT_SET_NO":999,"REV_AT_EPOCH":73782,"BSTAR":0.00033795606,"MEAN_MOTION_DOT":6.188e-5,"MEAN_MOTION_DDOT":0},{"OBJECT_NAME":"COSMOS 2251 DEB","OBJECT_ID":"1993-036AWP","EPOCH":"2026-04-02T23:04:33.853152","MEAN_MOTION":14.52036424,"ECCENTRICITY":0.00136411,"INCLINATION":74.0454,"RA_OF_ASC_NODE":337.974,"ARG_OF_PERICENTER":27.1039,"MEAN_ANOMALY":333.0832,"EPHEMERIS_TYPE":0,"CLASSIFICATION_TYPE":"U","NORAD_CAT_ID":35997,"ELEMENT_SET_NO":999,"REV_AT_EPOCH":72498,"BSTAR":0.00092484193,"MEAN_MOTION_DOT":3.718e-5,"MEAN_MOTION_DDOT":0},{"OBJECT_NAME":"COSMOS 2251 DEB","OBJECT_ID":"1993-036AWS","EPOCH":"2026-04-03T15:00:17.699904","MEAN_MOTION":14.969439,"ECCENTRICITY":0.0029812,"INCLINATION":73.9886,"RA_OF_ASC_NODE":221.1492,"ARG_OF_PERICENTER":308.4869,"MEAN_ANOMALY":51.3642,"EPHEMERIS_TYPE":0,"CLASSIFICATION_TYPE":"U","NORAD_CAT_ID":36000,"ELEMENT_SET_NO":999,"REV_AT_EPOCH":61840,"BSTAR":0.0045804,"MEAN_MOTION_DOT":0.00053486,"MEAN_MOTION_DDOT":0},{"OBJECT_NAME":"COSMOS 2251 DEB","OBJECT_ID":"1993-036AWX","EPOCH":"2026-04-04T19:14:43.168128","MEAN_MOTION":14.47522364,"ECCENTRICITY":0.00611537,"INCLINATION":74.0253,"RA_OF_ASC_NODE":242.4307,"ARG_OF_PERICENTER":350.2727,"MEAN_ANOMALY":9.7242,"EPHEMERIS_TYPE":0,"CLASSIFICATION_TYPE":"U","NORAD_CAT_ID":36005,"ELEMENT_SET_NO":999,"REV_AT_EPOCH":89220,"BSTAR":0.0002159832,"MEAN_MOTION_DOT":7.84e-6,"MEAN_MOTION_DDOT":0},{"OBJECT_NAME":"COSMOS 2251 DEB","OBJECT_ID":"1993-036AXG","EPOCH":"2026-04-03T06:45:46.564416","MEAN_MOTION":14.73284811,"ECCENTRICITY":0.0045692,"INCLINATION":73.7618,"RA_OF_ASC_NODE":198.6776,"ARG_OF_PERICENTER":197.4968,"MEAN_ANOMALY":162.4632,"EPHEMERIS_TYPE":0,"CLASSIFICATION_TYPE":"U","NORAD_CAT_ID":36045,"ELEMENT_SET_NO":999,"REV_AT_EPOCH":10029,"BSTAR":0.0042546,"MEAN_MOTION_DOT":0.00028052,"MEAN_MOTION_DDOT":0}]
